start=new Date('2022-08-04T00:00:00.000Z').valueOf();
sats=[{"GP_ID":"209496567","OBJECT_TYPE":"PAYLOAD","CLASSIFICATION_TYPE":"U","TLE_LINE1":"1 53082U 22077AR  22215.58334491 -.00047030  00000-0 -79121-3 0  9994","OBJECT_NAME":"STARLINK-4321","TLE_LINE2":"2 53082  97.6572  35.1227 0001202  72.4783 181.6921 15.51808166  1305","PERIAPSIS":"410.633","CENTER_NAME":"EARTH","RCS_SIZE":"LARGE","PERIOD":"92.795","SEMIMAJOR_AXIS":"6789.584","NORAD_CAT_ID":"53082","SITE":"AFWTR","MEAN_ELEMENT_THEORY":"SGP4","FILE":"3528364","ELEMENT_SET_NO":"999","OBJECT_ID":"2022-077AR","TIME_SYSTEM":"UTC","APOAPSIS":"412.265","MEAN_MOTION":"15.51808166","REV_AT_EPOCH":"130","RA_OF_ASC_NODE":"35.1227","MEAN_MOTION_DDOT":"0.0000000000000","BSTAR":"-0.00079121000000","DECAY_DATE":null,"COUNTRY_CODE":"US","MEAN_ANOMALY":"181.6921","ARG_OF_PERICENTER":"72.4783","EPOCH":"2022-08-03T14:00:01.000224","LAUNCH_DATE":"2022-07-11","ECCENTRICITY":"0.00012020","REF_FRAME":"TEME","MEAN_MOTION_DOT":"-0.00047030","INCLINATION":"97.6572","EPHEMERIS_TYPE":"0"},{"ARG_OF_PERICENTER":"64.9454","EPOCH":"2022-08-03T14:00:01.000224","LAUNCH_DATE":"2022-07-11","ECCENTRICITY":"0.00016460","REF_FRAME":"TEME","MEAN_MOTION_DOT":"0.00041396","EPHEMERIS_TYPE":"0","INCLINATION":"97.6589","RA_OF_ASC_NODE":"35.1156","REV_AT_EPOCH":"426","MEAN_MOTION_DDOT":"0.0000000000000","DECAY_DATE":null,"BSTAR":"0.00069588000000","COUNTRY_CODE":"US","MEAN_ANOMALY":"109.7808","PERIOD":"92.805","SEMIMAJOR_AXIS":"6790.053","SITE":"AFWTR","NORAD_CAT_ID":"53083","MEAN_ELEMENT_THEORY":"SGP4","ELEMENT_SET_NO":"999","FILE":"3528364","OBJECT_ID":"2022-077AS","TIME_SYSTEM":"UTC","APOAPSIS":"413.036","MEAN_MOTION":"15.51647309","GP_ID":"209497028","OBJECT_TYPE":"PAYLOAD","CLASSIFICATION_TYPE":"U","TLE_LINE1":"1 53083U 22077AS  22215.58334491  .00041396  00000-0  69588-3 0  9998","OBJECT_NAME":"STARLINK-4251","TLE_LINE2":"2 53083  97.6589  35.1156 0001646  64.9454 109.7808 15.51647309  4261","PERIAPSIS":"410.800","CENTER_NAME":"EARTH","RCS_SIZE":"LARGE"},{"DECAY_DATE":null,"BSTAR":"-0.00079803000000","MEAN_MOTION_DDOT":"0.0000000000000","RA_OF_ASC_NODE":"35.1221","REV_AT_EPOCH":"130","COUNTRY_CODE":"US","MEAN_ANOMALY":"172.3095","EPOCH":"2022-08-03T14:00:01.000224","LAUNCH_DATE":"2022-07-11","ARG_OF_PERICENTER":"83.4371","MEAN_MOTION_DOT":"-0.00047449","REF_FRAME":"TEME","EPHEMERIS_TYPE":"0","INCLINATION":"97.6563","ECCENTRICITY":"0.00010300","OBJECT_TYPE":"PAYLOAD","TLE_LINE1":"1 53084U 22077AT  22215.58334491 -.00047449  00000-0 -79803-3 0  9997","CLASSIFICATION_TYPE":"U","GP_ID":"209496824","RCS_SIZE":"LARGE","OBJECT_NAME":"STARLINK-4319","PERIAPSIS":"410.719","CENTER_NAME":"EARTH","TLE_LINE2":"2 53084  97.6563  35.1221 0001030  83.4371 172.3095 15.51818687  1303","PERIOD":"92.794","SEMIMAJOR_AXIS":"6789.553","OBJECT_ID":"2022-077AT","FILE":"3528364","ELEMENT_SET_NO":"999","APOAPSIS":"412.117","TIME_SYSTEM":"UTC","MEAN_MOTION":"15.51818687","NORAD_CAT_ID":"53084","SITE":"AFWTR","MEAN_ELEMENT_THEORY":"SGP4"},{"ARG_OF_PERICENTER":"66.4564","LAUNCH_DATE":"2022-07-11","EPOCH":"2022-08-03T14:00:01.000224","ECCENTRICITY":"0.00017580","INCLINATION":"97.6560","EPHEMERIS_TYPE":"0","MEAN_MOTION_DOT":"-0.00047092","REF_FRAME":"TEME","RA_OF_ASC_NODE":"35.1213","REV_AT_EPOCH":"130","DECAY_DATE":null,"BSTAR":"-0.00079229000000","MEAN_MOTION_DDOT":"0.0000000000000","MEAN_ANOMALY":"191.0894","COUNTRY_CODE":"US","PERIOD":"92.795","SEMIMAJOR_AXIS":"6789.590","MEAN_ELEMENT_THEORY":"SGP4","SITE":"AFWTR","NORAD_CAT_ID":"53085","TIME_SYSTEM":"UTC","APOAPSIS":"412.648","MEAN_MOTION":"15.51806145","OBJECT_ID":"2022-077AU","FILE":"3528364","ELEMENT_SET_NO":"999","GP_ID":"209497284","TLE_LINE1":"1 53085U 22077AU  22215.58334491 -.00047092  00000-0 -79229-3 0  9994","CLASSIFICATION_TYPE":"U","OBJECT_TYPE":"PAYLOAD","CENTER_NAME":"EARTH","PERIAPSIS":"410.261","TLE_LINE2":"2 53085  97.6560  35.1213 0001758  66.4564 191.0894 15.51806145  1305","OBJECT_NAME":"STARLINK-4324","RCS_SIZE":"LARGE"},{"RCS_SIZE":"LARGE","TLE_LINE2":"2 53086  97.6550  35.1202 0001665  80.7068 175.9901 15.51800848  1302","PERIAPSIS":"410.340","CENTER_NAME":"EARTH","OBJECT_NAME":"STARLINK-4318","CLASSIFICATION_TYPE":"U","TLE_LINE1":"1 53086U 22077AV  22215.58334491 -.00047351  00000-0 -79684-3 0  9998","OBJECT_TYPE":"PAYLOAD","GP_ID":"209496952","APOAPSIS":"412.601","MEAN_MOTION":"15.51800848","TIME_SYSTEM":"UTC","ELEMENT_SET_NO":"999","FILE":"3528364","OBJECT_ID":"2022-077AV","MEAN_ELEMENT_THEORY":"SGP4","NORAD_CAT_ID":"53086","SITE":"AFWTR","PERIOD":"92.795","SEMIMAJOR_AXIS":"6789.605","MEAN_ANOMALY":"175.9901","COUNTRY_CODE":"US","MEAN_MOTION_DDOT":"0.0000000000000","BSTAR":"-0.00079684000000","DECAY_DATE":null,"RA_OF_ASC_NODE":"35.1202","REV_AT_EPOCH":"130","EPHEMERIS_TYPE":"0","INCLINATION":"97.6550","REF_FRAME":"TEME","MEAN_MOTION_DOT":"-0.00047351","ECCENTRICITY":"0.00016650","LAUNCH_DATE":"2022-07-11","EPOCH":"2022-08-03T14:00:01.000224","ARG_OF_PERICENTER":"80.7068"},{"DECAY_DATE":null,"BSTAR":"-0.00079692000000","MEAN_MOTION_DDOT":"0.0000000000000","RA_OF_ASC_NODE":"35.1199","REV_AT_EPOCH":"130","COUNTRY_CODE":"US","MEAN_ANOMALY":"187.4598","EPOCH":"2022-08-03T14:00:01.000224","LAUNCH_DATE":"2022-07-11","ARG_OF_PERICENTER":"71.5452","MEAN_MOTION_DOT":"-0.00047355","REF_FRAME":"TEME","EPHEMERIS_TYPE":"0","INCLINATION":"97.6560","ECCENTRICITY":"0.00016660","OBJECT_TYPE":"PAYLOAD","TLE_LINE1":"1 53087U 22077AW  22215.58334491 -.00047355  00000-0 -79692-3 0  9992","CLASSIFICATION_TYPE":"U","GP_ID":"209496643","RCS_SIZE":"LARGE","OBJECT_NAME":"STARLINK-4329","PERIAPSIS":"410.341","CENTER_NAME":"EARTH","TLE_LINE2":"2 53087  97.6560  35.1199 0001666  71.5452 187.4598 15.51800293  1309","SEMIMAJOR_AXIS":"6789.607","PERIOD":"92.795","OBJECT_ID":"2022-077AW","FILE":"3528364","ELEMENT_SET_NO":"999","APOAPSIS":"412.603","MEAN_MOTION":"15.51800293","TIME_SYSTEM":"UTC","NORAD_CAT_ID":"53087","SITE":"AFWTR","MEAN_ELEMENT_THEORY":"SGP4"},{"RCS_SIZE":"LARGE","TLE_LINE2":"2 53088  97.6559  35.1185 0001521  68.9506 189.4872 15.51820850  1301","PERIAPSIS":"410.379","CENTER_NAME":"EARTH","OBJECT_NAME":"STARLINK-4333","CLASSIFICATION_TYPE":"U","TLE_LINE1":"1 53088U 22077AX  22215.58334491 -.00047232  00000-0 -79426-3 0  9992","OBJECT_TYPE":"PAYLOAD","GP_ID":"209496440","APOAPSIS":"412.444","MEAN_MOTION":"15.51820850","TIME_SYSTEM":"UTC","FILE":"3528364","OBJECT_ID":"2022-077AX","ELEMENT_SET_NO":"999","MEAN_ELEMENT_THEORY":"SGP4","SITE":"AFWTR","NORAD_CAT_ID":"53088","SEMIMAJOR_AXIS":"6789.547","PERIOD":"92.794","MEAN_ANOMALY":"189.4872","COUNTRY_CODE":"US","MEAN_MOTION_DDOT":"0.0000000000000","DECAY_DATE":null,"BSTAR":"-0.00079426000000","REV_AT_EPOCH":"130","RA_OF_ASC_NODE":"35.1185","INCLINATION":"97.6559","EPHEMERIS_TYPE":"0","REF_FRAME":"TEME","MEAN_MOTION_DOT":"-0.00047232","ECCENTRICITY":"0.00015210","LAUNCH_DATE":"2022-07-11","EPOCH":"2022-08-03T14:00:01.000224","ARG_OF_PERICENTER":"68.9506"},{"EPOCH":"2022-08-03T20:00:01.000224","LAUNCH_DATE":"2022-07-17","ARG_OF_PERICENTER":"30.6595","REF_FRAME":"TEME","MEAN_MOTION_DOT":"-0.00070351","EPHEMERIS_TYPE":"0","INCLINATION":"53.2170","ECCENTRICITY":"0.00018040","MEAN_MOTION_DDOT":"0.0000000000000","BSTAR":"-0.00049978000000","DECAY_DATE":null,"REV_AT_EPOCH":"336","RA_OF_ASC_NODE":"321.5120","COUNTRY_CODE":"US","MEAN_ANOMALY":"213.5779","PERIOD":"91.530","SEMIMAJOR_AXIS":"6727.734","FILE":"3528455","OBJECT_ID":"2022-083A","ELEMENT_SET_NO":"999","TIME_SYSTEM":"UTC","APOAPSIS":"350.813","MEAN_MOTION":"15.73256520","SITE":"AFETR","NORAD_CAT_ID":"53132","MEAN_ELEMENT_THEORY":"SGP4","OBJECT_TYPE":"PAYLOAD","CLASSIFICATION_TYPE":"U","TLE_LINE1":"1 53132U 22083A   22215.83334491 -.00070351  00000-0 -49978-3 0  9994","GP_ID":"209498875","RCS_SIZE":"LARGE","OBJECT_NAME":"STARLINK-4063","TLE_LINE2":"2 53132  53.2170 321.5120 0001804  30.6595 213.5779 15.73256520  3361","CENTER_NAME":"EARTH","PERIAPSIS":"348.385"},{"RCS_SIZE":"LARGE","PERIAPSIS":"347.780","CENTER_NAME":"EARTH","TLE_LINE2":"2 53133  53.2170 321.5203 0003012 332.8419 267.8622 15.73183659  3360","OBJECT_NAME":"STARLINK-4154","TLE_LINE1":"1 53133U 22083B   22215.83334491  .00034764  00000-0  25123-3 0  9997","CLASSIFICATION_TYPE":"U","OBJECT_TYPE":"PAYLOAD","GP_ID":"209499369","MEAN_MOTION":"15.73183659","APOAPSIS":"351.833","TIME_SYSTEM":"UTC","ELEMENT_SET_NO":"999","FILE":"3528460","OBJECT_ID":"2022-083B","MEAN_ELEMENT_THEORY":"SGP4","NORAD_CAT_ID":"53133","SITE":"AFETR","PERIOD":"91.534","SEMIMAJOR_AXIS":"6727.942","MEAN_ANOMALY":"267.8622","COUNTRY_CODE":"US","BSTAR":"0.00025123000000","DECAY_DATE":null,"MEAN_MOTION_DDOT":"0.0000000000000","RA_OF_ASC_NODE":"321.5203","REV_AT_EPOCH":"336","EPHEMERIS_TYPE":"0","INCLINATION":"53.2170","MEAN_MOTION_DOT":"0.00034764","REF_FRAME":"TEME","ECCENTRICITY":"0.00030120","LAUNCH_DATE":"2022-07-17","EPOCH":"2022-08-03T20:00:01.000224","ARG_OF_PERICENTER":"332.8419"},{"ECCENTRICITY":"0.00019080","EPHEMERIS_TYPE":"0","INCLINATION":"53.2173","REF_FRAME":"TEME","MEAN_MOTION_DOT":"0.00034796","ARG_OF_PERICENTER":"36.8014","LAUNCH_DATE":"2022-07-17","EPOCH":"2022-08-03T20:00:01.000224","MEAN_ANOMALY":"205.5846","COUNTRY_CODE":"US","RA_OF_ASC_NODE":"321.5172","REV_AT_EPOCH":"336","MEAN_MOTION_DDOT":"0.0000000000000","BSTAR":"0.00025122000000","DECAY_DATE":null,"MEAN_ELEMENT_THEORY":"SGP4","NORAD_CAT_ID":"53134","SITE":"AFETR","APOAPSIS":"351.021","TIME_SYSTEM":"UTC","MEAN_MOTION":"15.73208063","FILE":"3528460","ELEMENT_SET_NO":"999","OBJECT_ID":"2022-083C","PERIOD":"91.533","SEMIMAJOR_AXIS":"6727.872","TLE_LINE2":"2 53134  53.2173 321.5172 0001908  36.8014 205.5846 15.73208063  3367","PERIAPSIS":"348.454","CENTER_NAME":"EARTH","OBJECT_NAME":"STARLINK-4150","RCS_SIZE":"LARGE","GP_ID":"209499370","CLASSIFICATION_TYPE":"U","TLE_LINE1":"1 53134U 22083C   22215.83334491  .00034796  00000-0  25122-3 0  9992","OBJECT_TYPE":"PAYLOAD"}];
